{
  "norad_id": 67386,
  "name": "TWILIGHT-1 OBJECT Z",
  "history": [
    {
      "epoch": "2026-03-28T22:00:28.725696Z",
      "apogee_km": 605.1872186096243,
      "perigee_km": 599.7064830050003,
      "latitude_deg": 4.246043572968211e-06,
      "longitude_deg": -68.58046250727058,
      "height_km": 603.775749407938,
      "semi_major_axis_km": 6980.583850807312,
      "eccentricity": 0.00039257,
      "inclination_deg": 97.8006,
      "raan_deg": 87.8698,
      "arg_perigee_deg": 51.6149,
      "mean_anomaly_deg": 308.542,
      "mean_motion_rev_day": 14.8855587
    },
    {
      "epoch": "2026-03-28T23:37:16.565664Z",
      "apogee_km": 605.1804424141028,
      "perigee_km": 599.7104580061168,
      "latitude_deg": 5.569947323807797e-05,
      "longitude_deg": -92.77995816392337,
      "height_km": 603.7713873039103,
      "semi_major_axis_km": 6980.5824502101095,
      "eccentricity": 0.0003918,
      "inclination_deg": 97.8006,
      "raan_deg": 87.9359,
      "arg_perigee_deg": 51.4459,
      "mean_anomaly_deg": 308.7109,
      "mean_motion_rev_day": 14.88556318
    },
    {
      "epoch": "2026-03-29T23:49:14.134944Z",
      "apogee_km": 605.0879940173072,
      "perigee_km": 599.7562429626032,
      "latitude_deg": -1.4365222210379558e-05,
      "longitude_deg": -95.77105107501127,
      "height_km": 603.721860749002,
      "semi_major_axis_km": 6980.559118489955,
      "eccentricity": 0.0003819,
      "inclination_deg": 97.8,
      "raan_deg": 88.9285,
      "arg_perigee_deg": 49.5063,
      "mean_anomaly_deg": 310.6486,
      "mean_motion_rev_day": 14.88563781
    }
  ]
}